$GPRMC,085412.00,A,4715.0834899,N,00559.6016153,E,3.35,293.37,190226,0.0,E,A*37
$GPGGA,085412.00,4715.0834899,N,00559.6016153,E,1,06,1.0,364.270,M,0.000,M,0.0,*74
$GAGSA,A,3,05,06,09,16,23,31,,,,,,,2.9,1.4,2.5,3*3B
$GAGSV,2,1,06,05,32,309,00,06,43,200,00,09,55,237,00,16,28,253,00,7*7D
$GAGSV,2,2,06,23,40,063,00,31,83,303,00,,,,,,,,,7*7C
$GPRMC,085442.00,A,4715.0799278,N,00559.6066866,E,2.30,313.48,190226,0.0,E,A*32
$GPGGA,085442.00,4715.0799278,N,00559.6066866,E,1,06,1.0,357.293,M,0.000,M,0.0,*79
$GAGSA,A,3,05,06,09,16,23,31,,,,,,,2.9,1.4,2.5,3*3B
$GAGSV,2,1,06,05,32,309,00,06,43,200,00,09,55,237,00,16,28,253,00,7*7D
$GAGSV,2,2,06,23,40,064,00,31,83,304,00,,,,,,,,,7*7C
$GPRMC,085512.00,A,4715.0806967,N,00559.6030260,E,2.18,148.61,190226,0.0,E,A*38
$GPGGA,085512.00,4715.0806967,N,00559.6030260,E,1,06,1.0,362.159,M,0.000,M,0.0,*7D
$GAGSA,A,3,05,06,09,16,23,31,,,,,,,2.9,1.4,2.5,3*3B
$GAGSV,2,1,06,05,32,309,00,06,43,200,00,09,55,236,00,16,28,253,00,7*7C
$GAGSV,2,2,06,23,39,064,00,31,83,305,00,,,,,,,,,7*73
$GPRMC,085542.00,A,4715.0793014,N,00559.6023048,E,2.09,226.76,190226,0.0,E,A*34
$GPGGA,085542.00,4715.0793014,N,00559.6023048,E,1,06,1.0,369.214,M,0.000,M,0.0,*7D
$GAGSA,A,3,05,06,09,16,23,31,,,,,,,2.9,1.4,2.5,3*3B
$GAGSV,2,1,06,05,32,309,00,06,43,200,00,09,55,236,00,16,28,253,00,7*7C
$GAGSV,2,2,06,23,39,064,00,31,83,307,00,,,,,,,,,7*71
$GPRMC,085612.00,A,4715.0810766,N,00559.6068522,E,1.80,226.76,190226,0.0,E,A*30
$GPGGA,085612.00,4715.0810766,N,00559.6068522,E,1,06,1.0,366.084,M,0.000,M,0.0,*7F
$GAGSA,A,3,05,06,09,16,23,31,,,,,,,2.9,1.4,2.5,3*3B
$GAGSV,2,1,06,05,32,309,00,06,43,200,00,09,55,236,00,16,29,254,00,7*7A
$GAGSV,2,2,06,23,39,064,00,31,83,308,00,,,,,,,,,7*7E
