$GPRMC,112642.00,A,4715.0812032,N,00559.6048672,E,0.56,0.00,190226,0.0,E,A*37
$GPGGA,112642.00,4715.0812032,N,00559.6048672,E,1,06,1.0,359.846,M,0.000,M,0.0,*7F
$GAGSA,A,3,03,05,10,16,25,33,,,,,,,2.6,1.3,2.3,3*3C
$GAGSV,2,1,06,03,21,304,39,05,24,249,39,10,23,164,36,16,73,312,46,7*7A
$GAGSV,2,2,06,25,25,285,40,33,41,069,42,,,,,,,,,7*72
$GPRMC,112712.00,A,4715.0824436,N,00559.6057394,E,1.58,0.00,190226,0.0,E,A*3A
$GPGGA,112712.00,4715.0824436,N,00559.6057394,E,1,07,1.0,360.777,M,0.000,M,0.0,*7B
$GAGSA,A,3,03,05,10,12,16,25,33,,,,,,2.6,1.2,2.3,3*3E
$GAGSV,2,1,07,03,21,304,39,05,23,249,39,10,23,164,36,12,38,143,38,7*78
$GAGSV,2,2,07,16,73,312,47,25,25,286,40,33,41,068,42,,,,,7*41
$GPRMC,112742.00,A,4715.0801768,N,00559.6056487,E,1.13,0.00,190226,0.0,E,A*3B
$GPGGA,112742.00,4715.0801768,N,00559.6056487,E,1,08,1.0,359.478,M,0.000,M,0.0,*7C
$GAGSA,A,3,03,05,10,12,16,25,31,33,,,,,2.5,1.1,2.3,3*3C
$GAGSV,2,1,08,03,21,304,40,05,23,249,38,10,23,164,38,12,38,143,39,7*77
$GAGSV,2,2,08,16,73,313,47,25,25,286,40,31,44,091,46,33,40,068,42,7*76
$GPRMC,112812.00,A,4715.0792054,N,00559.6078366,E,0.35,0.00,190226,0.0,E,A*3D
$GPGGA,112812.00,4715.0792054,N,00559.6078366,E,1,08,1.0,361.991,M,0.000,M,0.0,*7E
$GAGSA,A,3,03,05,10,12,16,25,31,33,,,,,2.5,1.1,2.3,3*3C
$GAGSV,2,1,08,03,21,303,39,05,23,249,37,10,23,164,38,12,38,142,39,7*70
$GAGSV,2,2,08,16,73,313,46,25,25,286,41,31,44,091,46,33,40,068,42,7*76
$GPRMC,112842.00,A,4715.0782171,N,00559.6056382,E,0.63,0.00,190226,0.0,E,A*3A
$GPGGA,112842.00,4715.0782171,N,00559.6056382,E,1,08,1.0,367.802,M,0.000,M,0.0,*77
$GAGSA,A,3,03,05,10,12,16,25,31,33,,,,,2.5,1.1,2.3,3*3C
$GAGSV,2,1,08,03,21,303,40,05,23,249,36,10,23,164,38,12,38,142,39,7*7F
$GAGSV,2,2,08,16,73,313,47,25,25,286,41,31,44,091,46,33,40,068,43,7*76
$GPRMC,112912.00,A,4715.0781137,N,00559.6054241,E,0.13,0.00,190226,0.0,E,A*34
$GPGGA,112912.00,4715.0781137,N,00559.6054241,E,1,08,1.0,361.821,M,0.000,M,0.0,*79
$GAGSA,A,3,03,05,10,12,16,25,31,33,,,,,2.5,1.1,2.3,3*3C
$GAGSV,2,1,08,03,21,303,40,05,23,249,36,10,24,164,38,12,39,142,40,7*77
$GAGSV,2,2,08,16,73,314,46,25,25,286,40,31,44,091,46,33,40,067,44,7*79
$GPRMC,112942.00,A,4715.0790480,N,00559.6067222,E,0.36,0.00,190226,0.0,E,A*3A
$GPGGA,112942.00,4715.0790480,N,00559.6067222,E,1,08,1.0,366.481,M,0.000,M,0.0,*71
$GAGSA,A,3,03,05,10,12,16,25,31,33,,,,,2.5,1.1,2.3,3*3C
$GAGSV,2,1,08,03,21,303,40,05,23,248,36,10,24,164,38,12,39,142,40,7*76
$GAGSV,2,2,08,16,74,314,47,25,26,286,41,31,44,091,46,33,40,067,43,7*7A
$GPRMC,113012.00,A,4715.0801862,N,00559.6074012,E,0.79,0.00,190226,0.0,E,A*38
$GPGGA,113012.00,4715.0801862,N,00559.6074012,E,1,08,1.0,358.089,M,0.000,M,0.0,*79
$GAGSA,A,3,03,05,10,12,16,25,31,33,,,,,2.5,1.1,2.3,3*3C
$GAGSV,2,1,08,03,21,303,39,05,23,248,35,10,24,164,39,12,39,142,40,7*7A
$GAGSV,2,2,08,16,74,314,47,25,26,286,41,31,44,092,45,33,40,067,43,7*7A
$GPRMC,113042.00,A,4715.0804310,N,00559.6058814,E,0.44,0.00,190226,0.0,E,A*38
$GPGGA,113042.00,4715.0804310,N,00559.6058814,E,1,08,1.0,363.060,M,0.000,M,0.0,*78
$GAGSA,A,3,03,05,10,12,16,25,31,33,,,,,2.5,1.1,2.3,3*3C
$GAGSV,2,1,08,03,21,302,40,05,22,248,33,10,24,164,40,12,39,142,39,7*72
$GAGSV,2,2,08,16,74,315,47,25,26,286,41,31,44,092,44,33,40,067,43,7*7A
$GPRMC,113112.00,A,4715.0794909,N,00559.6067726,E,0.60,0.00,190226,0.0,E,A*3C
$GPGGA,113112.00,4715.0794909,N,00559.6067726,E,1,08,1.0,367.315,M,0.000,M,0.0,*7F
$GAGSA,A,3,03,05,10,12,16,25,31,33,,,,,2.5,1.1,2.3,3*3C
$GAGSV,2,1,08,03,21,302,40,05,22,248,34,10,24,164,40,12,39,142,40,7*7B
$GAGSV,2,2,08,16,74,315,46,25,26,286,41,31,43,092,44,33,40,067,44,7*7B
$GPRMC,113142.00,A,4715.0809579,N,00559.6074142,E,0.78,0.00,190226,0.0,E,A*36
$GPGGA,113142.00,4715.0809579,N,00559.6074142,E,1,08,1.0,361.399,M,0.000,M,0.0,*7E
$GAGSA,A,3,03,05,10,12,16,25,31,33,,,,,2.5,1.1,2.3,3*3C
$GAGSV,2,1,08,03,21,302,39,05,22,248,34,10,25,164,40,12,40,142,41,7*7B
$GAGSV,2,2,08,16,74,315,46,25,26,287,41,31,43,092,44,33,40,066,44,7*7B
$GPRMC,113212.00,A,4715.0812777,N,00559.6064728,E,0.58,0.00,190226,0.0,E,A*3F
$GPGGA,113212.00,4715.0812777,N,00559.6064728,E,1,08,1.0,360.494,M,0.000,M,0.0,*7E
$GAGSA,A,3,03,05,10,12,16,25,31,33,,,,,2.5,1.1,2.3,3*3C
$GAGSV,2,1,08,03,21,302,38,05,22,248,35,10,25,164,40,12,40,142,42,7*78
$GAGSV,2,2,08,16,74,316,46,25,26,287,40,31,43,092,44,33,40,066,44,7*79
$GPRMC,113242.00,A,4715.0815173,N,00559.6055745,E,0.46,0.00,190226,0.0,E,A*39
$GPGGA,113242.00,4715.0815173,N,00559.6055745,E,1,08,1.0,356.139,M,0.000,M,0.0,*70
$GAGSA,A,3,03,05,10,12,16,25,31,33,,,,,2.5,1.1,2.3,3*3C
$GAGSV,2,1,08,03,21,302,39,05,22,248,36,10,25,164,40,12,40,141,41,7*7A
$GAGSV,2,2,08,16,74,316,47,25,26,287,40,31,43,092,44,33,40,066,44,7*78
$GPRMC,113312.00,A,4715.0797923,N,00559.6058246,E,0.52,0.00,190226,0.0,E,A*3B
$GPGGA,113312.00,4715.0797923,N,00559.6058246,E,1,08,1.0,361.072,M,0.000,M,0.0,*7D
$GAGSA,A,3,03,05,10,12,16,25,31,33,,,,,2.5,1.1,2.3,3*3C
$GAGSV,2,1,08,03,21,302,39,05,22,248,34,10,25,164,41,12,40,141,40,7*78
$GAGSV,2,2,08,16,75,317,46,25,27,287,40,31,43,093,45,33,40,066,44,7*78
$GPRMC,113342.00,A,4715.0786443,N,00559.6061815,E,0.25,0.00,190226,0.0,E,A*33
$GPGGA,113342.00,4715.0786443,N,00559.6061815,E,1,08,1.0,364.949,M,0.000,M,0.0,*71
$GAGSA,A,3,03,05,10,12,16,25,31,33,,,,,2.5,1.1,2.3,3*3C
$GAGSV,2,1,08,03,21,301,39,05,22,247,36,10,25,164,40,12,40,141,40,7*77
$GAGSV,2,2,08,16,75,317,47,25,27,287,40,31,43,093,45,33,40,065,44,7*7A
$GPRMC,113412.00,A,4715.0793665,N,00559.6057992,E,0.29,0.00,190226,0.0,E,A*34
$GPGGA,113412.00,4715.0793665,N,00559.6057992,E,1,08,1.0,364.993,M,0.000,M,0.0,*7D
$GAGSA,A,3,03,05,10,12,16,25,31,33,,,,,2.5,1.1,2.3,3*3C
$GAGSV,2,1,08,03,21,301,40,05,21,247,38,10,26,164,39,12,41,141,41,7*79
$GAGSV,2,2,08,16,75,317,47,25,27,287,41,31,43,093,46,33,40,065,43,7*7F
$GPRMC,113442.00,A,4715.0804359,N,00559.6060051,E,0.52,0.00,190226,0.0,E,A*34
$GPGGA,113442.00,4715.0804359,N,00559.6060051,E,1,08,1.0,359.685,M,0.000,M,0.0,*77
$GAGSA,A,3,03,05,10,12,16,25,31,33,,,,,2.5,1.1,2.3,3*3C
$GAGSV,2,1,08,03,21,301,39,05,21,247,37,10,26,164,40,12,41,141,41,7*76
$GAGSV,2,2,08,16,75,318,47,25,27,287,41,31,42,093,46,33,40,065,42,7*70
$GPRMC,113512.00,A,4715.0814102,N,00559.6057885,E,0.22,0.00,190226,0.0,E,A*3F
$GPGGA,113512.00,4715.0814102,N,00559.6057885,E,1,08,1.0,358.331,M,0.000,M,0.0,*70
$GAGSA,A,3,03,05,10,12,16,25,31,33,,,,,2.5,1.1,2.3,3*3C
$GAGSV,2,1,08,03,21,301,39,05,21,247,37,10,26,164,41,12,41,141,41,7*77
$GAGSV,2,2,08,16,75,318,47,25,27,287,40,31,42,093,45,33,40,065,43,7*73
