$GPRMC,112642.00,A,4715.0821952,N,00559.6061775,E,0.53,0.00,190226,0.0,E,A*30
$GPGGA,112642.00,4715.0821952,N,00559.6061775,E,3,06,1.0,369.091,M,0.000,M,0.0,*7E
$GPGSA,A,3,18,25,26,28,29,31,,,,,,,3.2,1.8,2.6,1*2A
$GPGSV,2,1,06,18,24,174,00,25,52,101,00,26,31,294,00,28,62,252,00,1*6E
$GPGSV,2,2,06,29,81,059,00,31,44,300,00,,,,,,,,,1*6D
$GPRMC,112712.00,A,4715.0821837,N,00559.6059731,E,2.36,28.34,190226,0.0,E,A*01
$GPGGA,112712.00,4715.0821837,N,00559.6059731,E,3,06,1.0,366.815,M,0.000,M,0.0,*78
$GPGSA,A,3,18,25,26,28,29,31,,,,,,,3.2,1.8,2.6,1*2A
$GPGSV,2,1,06,18,24,174,00,25,52,102,00,26,31,294,00,28,62,252,00,1*6D
$GPGSV,2,2,06,29,81,059,00,31,44,299,00,,,,,,,,,1*6C
$GPRMC,112742.00,A,4715.0814655,N,00559.6054465,E,0.95,28.34,190226,0.0,E,A*0C
$GPGGA,112742.00,4715.0814655,N,00559.6054465,E,3,06,1.0,366.890,M,0.000,M,0.0,*73
$GPGSA,A,3,18,25,26,28,29,31,,,,,,,3.2,1.8,2.6,1*2A
$GPGSV,2,1,06,18,25,174,00,25,52,102,00,26,31,294,00,28,62,251,00,1*6F
$GPGSV,2,2,06,29,81,058,00,31,44,299,00,,,,,,,,,1*6D
$GPRMC,112812.00,A,4715.0814879,N,00559.6053930,E,2.60,31.24,190226,0.0,E,A*0D
$GPGGA,112812.00,4715.0814879,N,00559.6053930,E,3,06,1.0,366.341,M,0.000,M,0.0,*74
$GPGSA,A,3,18,25,26,28,29,31,,,,,,,3.2,1.8,2.6,1*2A
$GPGSV,2,1,06,18,25,174,00,25,51,102,00,26,31,295,00,28,62,251,00,1*6D
$GPGSV,2,2,06,29,80,058,00,31,44,299,00,,,,,,,,,1*6C
$GPRMC,112842.00,A,4715.0816325,N,00559.6054392,E,1.45,31.24,190226,0.0,E,A*09
$GPGGA,112842.00,4715.0816325,N,00559.6054392,E,3,06,1.0,366.299,M,0.000,M,0.0,*70
$GPGSA,A,3,18,25,26,28,29,31,,,,,,,3.2,1.8,2.7,1*2B
$GPGSV,2,1,06,18,25,174,00,25,51,102,00,26,32,295,00,28,62,250,00,1*6F
$GPGSV,2,2,06,29,80,058,00,31,44,299,00,,,,,,,,,1*6C
$GPRMC,112912.00,A,4715.0814709,N,00559.6053107,E,0.57,31.24,190226,0.0,E,A*0E
$GPGGA,112912.00,4715.0814709,N,00559.6053107,E,3,06,1.0,366.425,M,0.000,M,0.0,*74
$GPGSA,A,3,18,25,26,28,29,31,,,,,,,3.2,1.8,2.7,1*2B
$GPGSV,2,1,06,18,25,174,00,25,51,102,00,26,32,295,00,28,62,250,00,1*6F
$GPGSV,2,2,06,29,80,057,00,31,45,299,00,,,,,,,,,1*62
$GPRMC,112942.00,A,4715.0815824,N,00559.6052365,E,1.10,31.24,190226,0.0,E,A*0F
$GPGGA,112942.00,4715.0815824,N,00559.6052365,E,3,06,1.0,366.398,M,0.000,M,0.0,*76
$GPGSA,A,3,18,25,26,28,29,31,,,,,,,3.2,1.8,2.7,1*2B
$GPGSV,2,1,06,18,26,174,00,25,51,103,00,26,32,295,00,28,62,249,00,1*65
$GPGSV,2,2,06,29,80,057,00,31,45,298,00,,,,,,,,,1*63
$GPRMC,113012.00,A,4715.0813390,N,00559.6051866,E,2.10,176.90,190226,0.0,E,A*35
$GPGGA,113012.00,4715.0813390,N,00559.6051866,E,3,06,1.0,366.752,M,0.000,M,0.0,*70
$GPGSA,A,3,18,25,26,28,29,31,,,,,,,3.2,1.8,2.7,1*2B
$GPGSV,2,1,06,18,26,174,00,25,51,103,00,26,32,295,00,28,62,249,00,1*65
$GPGSV,2,2,06,29,79,057,00,31,45,298,00,,,,,,,,,1*65
$GPRMC,113042.00,A,4715.0812110,N,00559.6051830,E,0.73,176.90,190226,0.0,E,A*3F
$GPGGA,113042.00,4715.0812110,N,00559.6051830,E,3,06,1.0,367.189,M,0.000,M,0.0,*7C
$GPGSA,A,3,18,25,26,28,29,31,,,,,,,3.2,1.8,2.7,1*2B
$GPGSV,2,1,06,18,26,174,00,25,50,103,00,26,32,295,00,28,62,248,00,1*65
$GPGSV,2,2,06,29,79,057,00,31,45,298,00,,,,,,,,,1*65
$GPRMC,113112.00,A,4715.0812872,N,00559.6051823,E,2.44,188.48,190226,0.0,E,A*36
$GPGGA,113112.00,4715.0812872,N,00559.6051823,E,3,06,1.0,367.507,M,0.000,M,0.0,*75
$GPGSA,A,3,18,25,26,28,29,31,,,,,,,3.3,1.8,2.7,1*2A
$GPGSV,2,1,06,18,26,174,00,25,50,103,00,26,33,295,00,28,62,248,00,1*64
$GPGSV,2,2,06,29,79,057,00,31,45,298,00,,,,,,,,,1*65
$GPRMC,113142.00,A,4715.0812703,N,00559.6052037,E,1.98,24.99,190226,0.0,E,A*0D
$GPGGA,113142.00,4715.0812703,N,00559.6052037,E,3,06,1.0,367.504,M,0.000,M,0.0,*74
$GPGSA,A,3,18,25,26,28,29,31,,,,,,,3.3,1.8,2.8,1*25
$GPGSV,2,1,06,18,27,174,00,25,50,103,00,26,33,295,00,28,61,247,00,1*69
$GPGSV,2,2,06,29,79,056,00,31,45,297,00,,,,,,,,,1*6B
$GPRMC,113212.00,A,4715.0812143,N,00559.6051461,E,1.15,24.99,190226,0.0,E,A*08
$GPGGA,113212.00,4715.0812143,N,00559.6051461,E,3,06,1.0,367.263,M,0.000,M,0.0,*72
$GPGSA,A,3,18,25,26,28,29,31,,,,,,,3.3,1.7,2.8,1*2A
$GPGSV,2,1,06,18,27,174,00,25,50,104,00,26,33,295,00,28,61,247,00,1*6E
$GPGSV,2,2,06,29,78,056,00,31,46,297,00,,,,,,,,,1*69
$GPRMC,113242.00,A,4715.0810554,N,00559.6050426,E,1.05,24.99,190226,0.0,E,A*0E
$GPGGA,113242.00,4715.0810554,N,00559.6050426,E,3,06,1.0,367.063,M,0.000,M,0.0,*77
$GPGSA,A,3,18,25,26,28,29,31,,,,,,,3.3,1.7,2.8,1*2A
$GPGSV,2,1,06,18,27,174,00,25,49,104,00,26,33,295,00,28,61,246,00,1*67
$GPGSV,2,2,06,29,78,056,00,31,46,297,00,,,,,,,,,1*69
$GPRMC,113312.00,A,4715.0809366,N,00559.6050265,E,1.28,24.99,190226,0.0,E,A*0B
$GPGGA,113312.00,4715.0809366,N,00559.6050265,E,3,06,1.0,367.288,M,0.000,M,0.0,*7A
$GPGSA,A,3,18,25,26,28,29,31,,,,,,,3.3,1.7,2.8,1*2A
$GPGSV,2,1,06,18,27,174,00,25,49,104,00,26,33,295,00,28,61,246,00,1*67
$GPGSV,2,2,06,29,78,056,00,31,46,297,00,,,,,,,,,1*69
$GPRMC,113342.00,A,4715.0808587,N,00559.6050824,E,3.00,308.11,190226,0.0,E,A*3C
$GPGGA,113342.00,4715.0808587,N,00559.6050824,E,3,06,1.0,366.773,M,0.000,M,0.0,*78
$GPGSA,A,3,18,25,26,28,29,31,,,,,,,3.3,1.7,2.8,1*2A
$GPGSV,2,1,06,18,27,174,00,25,49,104,00,26,34,295,00,28,61,245,00,1*63
$GPGSV,2,2,06,29,78,056,00,31,46,296,00,,,,,,,,,1*68
$GPRMC,113412.00,A,4715.0808092,N,00559.6050764,E,0.26,308.11,190226,0.0,E,A*33
$GPGGA,113412.00,4715.0808092,N,00559.6050764,E,3,06,1.0,366.366,M,0.000,M,0.0,*70
$GPGSA,A,3,18,25,26,28,29,31,,,,,,,3.3,1.7,2.8,1*2A
$GPGSV,2,1,06,18,28,173,00,25,49,104,00,26,34,295,00,28,61,245,00,1*6B
$GPGSV,2,2,06,29,78,056,00,31,46,296,00,,,,,,,,,1*68
$GPRMC,113442.00,A,4715.0807297,N,00559.6050649,E,1.81,308.11,190226,0.0,E,A*3C
$GPGGA,113442.00,4715.0807297,N,00559.6050649,E,3,06,1.0,366.250,M,0.000,M,0.0,*77
$GPGSA,A,3,18,25,26,28,29,31,,,,,,,3.3,1.7,2.9,1*2B
$GPGSV,2,1,06,18,28,173,00,25,49,105,00,26,34,295,00,28,61,244,00,1*6B
$GPGSV,2,2,06,29,77,056,00,31,46,296,00,,,,,,,,,1*67
