$GPRMC,112642.00,A,4715.0818926,N,00559.6053924,E,2.35,160.24,190226,0.0,E,A*31
$GPGGA,112642.00,4715.0818926,N,00559.6053924,E,1,07,1.0,350.305,M,0.000,M,0.0,*7B
$GAGSA,A,3,03,05,12,16,18,25,33,,,,,,2.2,1.3,1.8,3*3B
$GAGSV,2,1,07,03,21,304,39,05,24,249,39,12,38,143,38,16,73,312,46,7*78
$GAGSV,2,2,07,18,72,217,00,25,25,285,40,33,41,069,42,,,,,7*4B
$GPRMC,112712.00,A,4715.0832413,N,00559.6022234,E,1.17,160.24,190226,0.0,E,A*39
$GPGGA,112712.00,4715.0832413,N,00559.6022234,E,1,08,1.0,355.301,M,0.000,M,0.0,*7E
$GAGSA,A,3,03,05,12,16,18,25,31,33,,,,,2.2,1.2,1.8,3*38
$GAGSV,2,1,08,03,21,304,39,05,23,249,39,12,38,143,38,16,73,312,47,7*71
$GAGSV,2,2,08,18,73,217,00,25,25,286,40,31,45,091,46,33,41,068,42,7*7E
$GPRMC,112812.00,A,4715.0801345,N,00559.6135809,E,3.39,182.49,190226,0.0,E,A*38
$GPGGA,112812.00,4715.0801345,N,00559.6135809,E,1,08,1.0,351.500,M,0.000,M,0.0,*75
$GAGSA,A,3,03,05,12,16,18,25,31,33,,,,,2.2,1.2,1.8,3*38
$GAGSV,2,1,08,03,21,303,39,05,23,249,37,12,38,142,39,16,73,313,46,7*78
$GAGSV,2,2,08,18,73,217,00,25,25,286,41,31,44,091,46,33,40,068,42,7*7F
$GPRMC,112912.00,A,4715.0831309,N,00559.6064559,E,1.51,182.49,190226,0.0,E,A*33
$GPGGA,112912.00,4715.0831309,N,00559.6064559,E,1,09,1.0,345.926,M,0.000,M,0.0,*7E
$GAGSA,A,3,03,05,10,12,16,18,25,31,33,,,,2.0,1.0,1.7,3*36
$GAGSV,3,1,09,03,21,303,40,05,23,249,36,10,24,164,38,12,39,142,40,7*77
$GAGSV,3,2,09,16,73,314,46,18,73,217,00,25,25,286,40,31,44,091,46,7*75
$GAGSV,3,3,09,33,40,067,44,,,,,,,,,,,,,7*4F
$GPRMC,112942.00,A,4715.0816278,N,00559.6094259,E,0.94,182.49,190226,0.0,E,A*34
$GPGGA,112942.00,4715.0816278,N,00559.6094259,E,1,09,1.0,362.201,M,0.000,M,0.0,*7A
$GAGSA,A,3,03,05,10,12,16,18,25,31,33,,,,2.0,1.0,1.7,3*36
$GAGSV,3,1,09,03,21,303,40,05,23,248,36,10,24,164,38,12,39,142,40,7*76
$GAGSV,3,2,09,16,74,314,47,18,73,217,00,25,26,286,41,31,44,091,46,7*71
$GAGSV,3,3,09,33,40,067,43,,,,,,,,,,,,,7*48
$GPRMC,113012.00,A,4715.0828298,N,00559.6115516,E,0.91,182.49,190226,0.0,E,A*3B
$GPGGA,113012.00,4715.0828298,N,00559.6115516,E,1,09,1.0,356.621,M,0.000,M,0.0,*71
$GAGSA,A,3,03,05,10,12,16,18,25,31,33,,,,2.0,1.0,1.7,3*36
$GAGSV,3,1,09,03,21,303,38,05,23,248,35,10,24,164,39,12,39,142,40,7*7B
$GAGSV,3,2,09,16,74,314,47,18,74,217,00,25,26,286,41,31,44,092,45,7*76
$GAGSV,3,3,09,33,40,067,43,,,,,,,,,,,,,7*48
$GPRMC,113042.00,A,4715.0819186,N,00559.6108224,E,0.40,182.49,190226,0.0,E,A*36
$GPGGA,113042.00,4715.0819186,N,00559.6108224,E,1,09,1.0,352.184,M,0.000,M,0.0,*7C
$GAGSA,A,3,03,05,10,12,16,18,25,31,33,,,,2.0,1.0,1.7,3*36
$GAGSV,3,1,09,03,21,302,40,05,22,248,33,10,24,164,40,12,39,142,39,7*72
$GAGSV,3,2,09,16,74,315,47,18,74,217,00,25,26,286,41,31,44,092,44,7*76
$GAGSV,3,3,09,33,40,067,43,,,,,,,,,,,,,7*48
$GPRMC,113112.00,A,4715.0814563,N,00559.6100740,E,0.81,182.49,190226,0.0,E,A*32
$GPGGA,113112.00,4715.0814563,N,00559.6100740,E,1,09,1.0,357.272,M,0.000,M,0.0,*7A
$GAGSA,A,3,03,05,10,12,16,18,25,31,33,,,,2.0,1.0,1.7,3*36
$GAGSV,3,1,09,03,21,302,40,05,22,248,34,10,24,164,40,12,39,142,40,7*7B
$GAGSV,3,2,09,16,74,315,46,18,74,217,00,25,26,286,41,31,43,092,44,7*70
$GAGSV,3,3,09,33,40,067,44,,,,,,,,,,,,,7*4F
$GPRMC,113142.00,A,4715.0830520,N,00559.6110069,E,1.92,182.49,190226,0.0,E,A*38
$GPGGA,113142.00,4715.0830520,N,00559.6110069,E,1,09,1.0,358.730,M,0.000,M,0.0,*7F
$GAGSA,A,3,03,05,10,12,16,18,25,31,33,,,,2.0,1.0,1.7,3*36
$GAGSV,3,1,09,03,21,302,39,05,22,248,34,10,25,164,40,12,40,142,41,7*7B
$GAGSV,3,2,09,16,74,315,46,18,74,218,00,25,26,287,41,31,43,092,44,7*7E
$GAGSV,3,3,09,33,40,066,44,,,,,,,,,,,,,7*4E
$GPRMC,113242.00,A,4715.0833349,N,00559.6071707,E,2.02,9.74,190226,0.0,E,A*3E
$GPGGA,113242.00,4715.0833349,N,00559.6071707,E,1,09,1.0,347.163,M,0.000,M,0.0,*71
$GAGSA,A,3,03,05,10,12,16,18,25,31,33,,,,2.0,1.0,1.7,3*36
$GAGSV,3,1,09,03,21,302,39,05,22,248,36,10,25,164,40,12,40,141,41,7*7A
$GAGSV,3,2,09,16,74,316,47,18,74,218,00,25,26,287,40,31,43,092,44,7*7D
$GAGSV,3,3,09,33,40,066,44,,,,,,,,,,,,,7*4E
$GPRMC,113312.00,A,4715.0788485,N,00559.6105043,E,0.93,9.74,190226,0.0,E,A*3D
$GPGGA,113312.00,4715.0788485,N,00559.6105043,E,1,09,1.0,346.444,M,0.000,M,0.0,*79
$GAGSA,A,3,03,05,10,12,16,18,25,31,33,,,,2.0,1.0,1.7,3*36
$GAGSV,3,1,09,03,21,302,39,05,22,248,34,10,25,164,41,12,40,141,40,7*78
$GAGSV,3,2,09,16,75,317,46,18,74,218,00,25,27,287,40,31,43,093,45,7*7D
$GAGSV,3,3,09,33,40,066,44,,,,,,,,,,,,,7*4E
$GPRMC,113412.00,A,4715.0798924,N,00559.6075882,E,0.61,9.74,190226,0.0,E,A*33
$GPGGA,113412.00,4715.0798924,N,00559.6075882,E,1,09,1.0,358.202,M,0.000,M,0.0,*71
$GAGSA,A,3,03,05,10,12,16,18,25,31,33,,,,2.0,1.0,1.7,3*36
$GAGSV,3,1,09,03,21,301,40,05,21,247,38,10,26,164,39,12,41,141,41,7*79
$GAGSV,3,2,09,16,75,317,47,18,75,218,00,25,27,287,41,31,43,093,46,7*7F
$GAGSV,3,3,09,33,40,065,43,,,,,,,,,,,,,7*4A
$GPRMC,113442.00,A,4715.0831604,N,00559.6078143,E,1.60,9.74,190226,0.0,E,A*3E
$GPGGA,113442.00,4715.0831604,N,00559.6078143,E,1,09,1.0,345.322,M,0.000,M,0.0,*73
$GAGSA,A,3,03,05,10,12,16,18,25,31,33,,,,2.0,1.0,1.7,3*36
$GAGSV,3,1,09,03,21,301,39,05,21,247,37,10,26,164,40,12,41,141,41,7*76
$GAGSV,3,2,09,16,75,318,47,18,75,218,00,25,27,287,41,31,42,093,46,7*71
$GAGSV,3,3,09,33,40,065,42,,,,,,,,,,,,,7*4B
$GPRMC,113512.00,A,4715.0832054,N,00559.6040685,E,2.07,0.43,190226,0.0,E,A*33
$GPGGA,113512.00,4715.0832054,N,00559.6040685,E,1,09,1.0,350.901,M,0.000,M,0.0,*7E
$GAGSA,A,3,03,05,10,12,16,18,25,31,33,,,,2.0,1.0,1.7,3*36
$GAGSV,3,1,09,03,21,301,39,05,21,247,37,10,26,164,41,12,41,141,41,7*77
$GAGSV,3,2,09,16,75,318,47,18,75,218,00,25,27,287,40,31,42,093,45,7*73
$GAGSV,3,3,09,33,40,065,43,,,,,,,,,,,,,7*4A
